{
"type": "FeatureCollection",
"name": "bridges",
"crs": { "type": "name", "properties": { "name": "urn:ogc:def:crs:OGC:1.3:CRS84" } },
"features": [
{ "type": "Feature", "properties": { "element": "way", "id": 338305062, "bridge": "yes", "bridge:structure": "truss", "highway": "unclassified", "layer": "1", "surface": "paved", "ref": null, "name": null, "sidewalk": null, "smoothness": null, "lanes": null, "route": null }, "geometry": { "type": "LineString", "coordinates": [ [ 92.3715929, 27.2081086 ], [ 92.3710807, 27.2079207 ] ] } },
{ "type": "Feature", "properties": { "element": "way", "id": 338305077, "bridge": "yes", "bridge:structure": "suspension", "highway": "path", "layer": "1", "surface": null, "ref": null, "name": null, "sidewalk": null, "smoothness": null, "lanes": null, "route": null }, "geometry": { "type": "LineString", "coordinates": [ [ 92.3690476, 27.2094283 ], [ 92.3689207, 27.2101534 ] ] } },
{ "type": "Feature", "properties": { "element": "way", "id": 338306253, "bridge": "yes", "bridge:structure": null, "highway": "road", "layer": "1", "surface": null, "ref": null, "name": null, "sidewalk": null, "smoothness": null, "lanes": null, "route": null }, "geometry": { "type": "LineString", "coordinates": [ [ 92.3839178, 27.2052418 ], [ 92.3842218, 27.2057275 ] ] } },
{ "type": "Feature", "properties": { "element": "way", "id": 338308715, "bridge": "yes", "bridge:structure": "simple-suspension", "highway": "path", "layer": "1", "surface": "paved", "ref": null, "name": null, "sidewalk": null, "smoothness": null, "lanes": null, "route": null }, "geometry": { "type": "LineString", "coordinates": [ [ 92.3253258, 27.2201726 ], [ 92.3250732, 27.2194543 ] ] } },
{ "type": "Feature", "properties": { "element": "way", "id": 338329175, "bridge": "yes", "bridge:structure": "suspension", "highway": "path", "layer": "1", "surface": null, "ref": null, "name": null, "sidewalk": null, "smoothness": null, "lanes": null, "route": null }, "geometry": { "type": "LineString", "coordinates": [ [ 92.4008346, 27.2016922 ], [ 92.4003545, 27.2021717 ] ] } },
{ "type": "Feature", "properties": { "element": "way", "id": 513054988, "bridge": "yes", "bridge:structure": null, "highway": "trunk", "layer": "1", "surface": null, "ref": "NH913", "name": null, "sidewalk": null, "smoothness": null, "lanes": null, "route": null }, "geometry": { "type": "LineString", "coordinates": [ [ 92.4375379, 27.3324016 ], [ 92.437562, 27.3328924 ] ] } },
{ "type": "Feature", "properties": { "element": "way", "id": 636805774, "bridge": "yes", "bridge:structure": null, "highway": "secondary", "layer": "1", "surface": "paved", "ref": null, "name": "Singchung-Shaitan bridge", "sidewalk": "no", "smoothness": "intermediate", "lanes": null, "route": null }, "geometry": { "type": "LineString", "coordinates": [ [ 92.4932999, 27.2052352 ], [ 92.4927615, 27.2053484 ] ] } },
{ "type": "Feature", "properties": { "element": "way", "id": 636805776, "bridge": "yes", "bridge:structure": null, "highway": "secondary", "layer": "1", "surface": "paved", "ref": null, "name": "Tenga-Singchung road", "sidewalk": null, "smoothness": "intermediate", "lanes": "1", "route": "road" }, "geometry": { "type": "LineString", "coordinates": [ [ 92.4614039, 27.21268 ], [ 92.4617258, 27.2121979 ], [ 92.4620486, 27.2117145 ] ] } },
{ "type": "Feature", "properties": { "element": "way", "id": 1166099601, "bridge": "yes", "bridge:structure": null, "highway": "unclassified", "layer": "1", "surface": null, "ref": null, "name": null, "sidewalk": null, "smoothness": null, "lanes": null, "route": null }, "geometry": { "type": "LineString", "coordinates": [ [ 92.5324622, 27.3733009 ], [ 92.5323502, 27.3736243 ] ] } },
{ "type": "Feature", "properties": { "element": "way", "id": 1166104395, "bridge": "yes", "bridge:structure": null, "highway": "unclassified", "layer": "1", "surface": null, "ref": null, "name": null, "sidewalk": null, "smoothness": null, "lanes": null, "route": null }, "geometry": { "type": "LineString", "coordinates": [ [ 92.5338689, 27.3820174 ], [ 92.5333857, 27.3821547 ] ] } },
{ "type": "Feature", "properties": { "element": "way", "id": 1166120268, "bridge": "yes", "bridge:structure": null, "highway": "unclassified", "layer": "1", "surface": null, "ref": null, "name": null, "sidewalk": null, "smoothness": null, "lanes": null, "route": null }, "geometry": { "type": "LineString", "coordinates": [ [ 92.5095494, 27.4035611 ], [ 92.5096145, 27.4035235 ] ] } },
{ "type": "Feature", "properties": { "element": "way", "id": 1168494012, "bridge": "yes", "bridge:structure": null, "highway": "residential", "layer": "1", "surface": null, "ref": null, "name": null, "sidewalk": null, "smoothness": null, "lanes": null, "route": null }, "geometry": { "type": "LineString", "coordinates": [ [ 92.4538506, 27.2144478 ], [ 92.4533059, 27.2137452 ] ] } },
{ "type": "Feature", "properties": { "element": "way", "id": 1168494018, "bridge": "yes", "bridge:structure": null, "highway": "residential", "layer": "1", "surface": null, "ref": null, "name": null, "sidewalk": null, "smoothness": null, "lanes": null, "route": null }, "geometry": { "type": "LineString", "coordinates": [ [ 92.478148, 27.2077259 ], [ 92.4783513, 27.2074942 ] ] } },
{ "type": "Feature", "properties": { "element": "way", "id": 1168494024, "bridge": "yes", "bridge:structure": null, "highway": "residential", "layer": "1", "surface": null, "ref": null, "name": null, "sidewalk": null, "smoothness": null, "lanes": null, "route": null }, "geometry": { "type": "LineString", "coordinates": [ [ 92.4309139, 27.2181677 ], [ 92.4307893, 27.2177324 ] ] } },
{ "type": "Feature", "properties": { "element": "way", "id": 1168896142, "bridge": "yes", "bridge:structure": null, "highway": "residential", "layer": "1", "surface": null, "ref": null, "name": null, "sidewalk": null, "smoothness": null, "lanes": null, "route": null }, "geometry": { "type": "LineString", "coordinates": [ [ 92.5067642, 27.2096111 ], [ 92.5065231, 27.2092644 ] ] } },
{ "type": "Feature", "properties": { "element": "way", "id": 1168896145, "bridge": "yes", "bridge:structure": null, "highway": "residential", "layer": "1", "surface": null, "ref": null, "name": null, "sidewalk": null, "smoothness": null, "lanes": null, "route": null }, "geometry": { "type": "LineString", "coordinates": [ [ 92.5114525, 27.2078124 ], [ 92.51172, 27.207431 ] ] } },
{ "type": "Feature", "properties": { "element": "way", "id": 1169009773, "bridge": "yes", "bridge:structure": null, "highway": "tertiary", "layer": "1", "surface": null, "ref": null, "name": null, "sidewalk": null, "smoothness": null, "lanes": null, "route": null }, "geometry": { "type": "LineString", "coordinates": [ [ 92.3270711, 27.3359292 ], [ 92.3270981, 27.3355793 ] ] } },
{ "type": "Feature", "properties": { "element": "way", "id": 1171489820, "bridge": "yes", "bridge:structure": null, "highway": "track", "layer": "1", "surface": null, "ref": null, "name": null, "sidewalk": null, "smoothness": null, "lanes": null, "route": null }, "geometry": { "type": "LineString", "coordinates": [ [ 92.3727872, 27.3311521 ], [ 92.3728973, 27.3316479 ] ] } },
{ "type": "Feature", "properties": { "element": "way", "id": 1174934625, "bridge": "yes", "bridge:structure": null, "highway": "tertiary", "layer": "1", "surface": null, "ref": null, "name": null, "sidewalk": null, "smoothness": null, "lanes": null, "route": null }, "geometry": { "type": "LineString", "coordinates": [ [ 92.510782, 27.4050603 ], [ 92.5107438, 27.4051137 ] ] } },
{ "type": "Feature", "properties": { "element": "way", "id": 1352942191, "bridge": "yes", "bridge:structure": null, "highway": "secondary", "layer": "1", "surface": null, "ref": null, "name": null, "sidewalk": null, "smoothness": null, "lanes": null, "route": null }, "geometry": { "type": "LineString", "coordinates": [ [ 92.4115031, 27.2174911 ], [ 92.4114367, 27.2168134 ] ] } },
{ "type": "Feature", "properties": { "element": "way", "id": 1378319574, "bridge": "yes", "bridge:structure": null, "highway": "secondary", "layer": "1", "surface": null, "ref": null, "name": null, "sidewalk": null, "smoothness": null, "lanes": null, "route": null }, "geometry": { "type": "LineString", "coordinates": [ [ 92.405311, 27.2100911 ], [ 92.405275, 27.2096098 ] ] } },
{ "type": "Feature", "properties": { "element": "way", "id": 1378319577, "bridge": "yes", "bridge:structure": null, "highway": "unclassified", "layer": "1", "surface": null, "ref": null, "name": null, "sidewalk": null, "smoothness": null, "lanes": null, "route": null }, "geometry": { "type": "LineString", "coordinates": [ [ 92.405503, 27.2082687 ], [ 92.4056071, 27.2081135 ] ] } }
]
}
