{
"type": "FeatureCollection",
"name": "risk_zone_example",
"crs": { "type": "name", "properties": { "name": "urn:ogc:def:crs:OGC:1.3:CRS84" } },
"features": [
{ "type": "Feature", "properties": { "risk_level": "HIGH", "radius_km": 1.0, "center_lat": 27.3, "center_lon": 92.4, "note": "PROTOTYPE risk zone - simple buffer, not a validated runout model" }, "geometry": { "type": "Polygon", "coordinates": [ [ [ 92.409009009009011, 27.3 ], [ 92.408965628168218, 27.299116962699735 ], [ 92.408835903427061, 27.298242429531388 ], [ 92.408621084105704, 27.297384822727437 ], [ 92.408323239031645, 27.296552401510226 ], [ 92.40794523661576, 27.295753182551117 ], [ 92.407490717227958, 27.294994862765591 ], [ 92.406964058138414, 27.294284745187717 ], [ 92.406370331362041, 27.293629668637958 ], [ 92.405715254812293, 27.293035941861596 ], [ 92.405005137234411, 27.292509282772048 ], [ 92.404246817448893, 27.29205476338425 ], [ 92.403447598489777, 27.291676760968368 ], [ 92.402615177272565, 27.291378915894306 ], [ 92.401757570468618, 27.291164096572945 ], [ 92.400883037300275, 27.291034371831781 ], [ 92.4, 27.290990990990991 ], [ 92.399116962699736, 27.291034371831781 ], [ 92.398242429531393, 27.291164096572945 ], [ 92.397384822727446, 27.291378915894306 ], [ 92.396552401510235, 27.291676760968368 ], [ 92.395753182551118, 27.29205476338425 ], [ 92.3949948627656, 27.292509282772048 ], [ 92.394284745187718, 27.293035941861596 ], [ 92.393629668637971, 27.293629668637958 ], [ 92.393035941861598, 27.294284745187717 ], [ 92.392509282772053, 27.294994862765591 ], [ 92.392054763384252, 27.295753182551117 ], [ 92.391676760968366, 27.296552401510226 ], [ 92.391378915894308, 27.297384822727437 ], [ 92.39116409657295, 27.298242429531388 ], [ 92.391034371831793, 27.299116962699735 ], [ 92.390990990991, 27.3 ], [ 92.391034371831793, 27.300883037300267 ], [ 92.39116409657295, 27.301757570468613 ], [ 92.391378915894308, 27.302615177272564 ], [ 92.391676760968366, 27.303447598489775 ], [ 92.392054763384252, 27.304246817448885 ], [ 92.392509282772053, 27.30500513723441 ], [ 92.393035941861598, 27.305715254812284 ], [ 92.393629668637971, 27.306370331362043 ], [ 92.394284745187718, 27.306964058138405 ], [ 92.3949948627656, 27.307490717227953 ], [ 92.395753182551118, 27.307945236615751 ], [ 92.396552401510235, 27.308323239031633 ], [ 92.397384822727446, 27.308621084105695 ], [ 92.398242429531393, 27.308835903427056 ], [ 92.399116962699736, 27.30896562816822 ], [ 92.4, 27.30900900900901 ], [ 92.400883037300275, 27.30896562816822 ], [ 92.401757570468618, 27.308835903427056 ], [ 92.402615177272565, 27.308621084105695 ], [ 92.403447598489777, 27.308323239031633 ], [ 92.404246817448893, 27.307945236615751 ], [ 92.405005137234411, 27.307490717227953 ], [ 92.405715254812293, 27.306964058138405 ], [ 92.406370331362041, 27.306370331362043 ], [ 92.406964058138414, 27.305715254812284 ], [ 92.407490717227958, 27.30500513723441 ], [ 92.40794523661576, 27.304246817448885 ], [ 92.408323239031645, 27.303447598489775 ], [ 92.408621084105704, 27.302615177272564 ], [ 92.408835903427061, 27.301757570468613 ], [ 92.408965628168218, 27.300883037300267 ], [ 92.409009009009011, 27.3 ] ] ] } }
]
}
